0 DELTA 1 DEB
1 10830U 76077CA  13283.27694627 -.00000044  00000-0 -10847-4 0  9230
2 10830 101.9171 196.8183 0089288 062.7864 065.2393 12.28269723667861
0 DELTA 1 DEB
1 10830U 76077CA  13285.70419299 -.00000036  00000-0  57357-4 0  9248
2 10830 101.9177 199.1431 0089326 058.4045 357.9184 12.28269427668169
0 DELTA 1 DEB
1 10830U 76077CA  13288.25153155 -.00000017  00000-0  21397-3 0  9251
2 10830 101.9178 201.5810 0089345 053.7567 101.6630 12.28269670668471
0 DELTA 1 DEB
1 10830U 76077CA  13290.75634528  .00000003  00000-0  39027-3 0  9261
2 10830 101.9176 203.9793 0089387 049.2131 017.3491 12.28269896668780
0 DELTA 1 DEB
1 10830U 76077CA  13293.03768676 -.00000008  00000-0  29431-3 0  9272
2 10830 101.9175 206.1639 0089399 045.0735 024.8943 12.28269979669069
0 DELTA 1 DEB
1 10830U 76077CA  13295.72243314 -.00000005  00000-0  32193-3 0  9284
2 10830 101.9175 208.7349 0089393 040.1868 016.2177 12.28270527669393
